SL-3 R/B                
1 19046U 88032B   23360.58132333  .00005781  00000+0  37549-3 0  9994
2 19046  97.4322 342.5826 0034570 132.7355 227.6793 15.07914022930430
SL-16 R/B               
1 19120U 88039B   23360.37285319  .00000168  00000+0  10236-3 0  9992
2 19120  71.0151 328.9597 0020277 138.7130 221.5532 14.19365248844249
COSMOS 1953             
1 19210U 88050A   23360.13261808  .00006871  00000+0  39222-3 0  9999
2 19210  82.5166 237.4794 0017094  54.6853 305.5973 15.12456697915532
SL-8 R/B                
1 19257U 88053B   23360.58737080  .00000475  00000+0  16522-3 0  9994
2 19257  74.0468 153.6116 0020185 176.9253 253.3056 14.38011833860973
COSMOS 1975             
1 19573U 88093A   23360.60001256  .00006335  00000+0  37047-3 0  9997
2 19573  82.5276 194.1871 0016529  95.8523 264.4592 15.11584795897274
SL-14 R/B               
1 19574U 88093B   23360.59890913  .00000876  00000+0  10162-3 0  9995
2 19574  82.5320  75.9994 0021466 172.4751 307.3454 14.84170004881706
SL-16 R/B               
1 19650U 88102B   23360.52857943  .00000265  00000+0  15869-3 0  9991
2 19650  71.0000  43.2523 0013493 164.2293 195.9253 14.15930858813052
INTERCOSMOS 24          
1 20261U 89080A   23360.27142874  .00002207  00000+0  65376-3 0  9995
2 20261  82.6061 266.9739 1197582 356.8110   2.5797 12.57472587565605
SL-14 R/B               
1 20262U 89080C   23360.42512957  .00000336  00000+0  10013-3 0  9995
2 20262  82.5944 329.3282 1233425 221.8971 128.1090 12.49554046559667
DELTA 1 R/B             
1 20323U 89089B   23360.43401795  .00000690  00000+0  18422-3 0  9995
2 20323  97.0959 317.3303 0071765 138.6674 221.9986 14.49187495779183
ARIANE 40 R/B           
1 20443U 90005H   23360.17447758  .00000553  00000+0  19400-3 0  9993
2 20443  98.4182  64.2658 0011463 100.7457 259.5022 14.38733509777073
DELTA 2 R/B(1)          
1 20453U 90008B   23360.59513785  .00010805  00000+0  45714-3 0  9995
2 20453  35.6183 168.7898 0223561 331.8016  27.0751 15.02681924803348
COSMOS 2058             
1 20465U 90010A   23360.38037020  .00005218  00000+0  39658-3 0  9993
2 20465  82.4877 112.8635 0014460 171.3930 188.7546 15.01891996821122
SL-14 R/B               
1 20466U 90010B   23360.31352457  .00000896  00000+0  10914-3 0  9992
2 20466  82.5030 302.0499 0021879  70.3554 290.0019 14.82170298809275
SL-14 R/B               
1 20511U 90018B   23360.20743771  .00000728  00000+0  91322-4 0  9999
2 20511  82.5229 254.2872 0016202 212.1119 313.4059 14.80799829803460
HST                     
1 20580U 90037B   23360.59698993  .00006721  00000+0  33737-3 0  9997
2 20580  28.4702  65.8973 0002029 308.0743 167.6929 15.15322999650654
SL-16 R/B               
1 20625U 90046B   23360.59317826 -.00000263  00000+0 -11135-3 0  9995
2 20625  70.9976 186.3708 0011834  85.8505 274.3970 14.14792496734650
COSMOS 2084             
1 20663U 90055A   23360.57415909  .00004931  00000+0  37979-3 0  9994
2 20663  62.7895 181.5799 0126576 104.0344 257.4862 14.96818802815565
SL-6 R/B(2)             
1 20666U 90055D   23360.58466304  .00004204  00000+0  34160-3 0  9995
2 20666  62.7850  95.2060 0107911 125.8242 235.2939 14.96725964817535
SL-8 R/B                
1 20775U 90078B   23360.15201744  .00014160  00000+0  58625-3 0  9993
2 20775  82.9179 235.1069 0494825 130.8778 233.6413 14.54435171690980
SL-8 R/B                
1 21088U 91006B   23360.57160413  .00000164  00000+0  14960-3 0  9999
2 21088  82.9424  48.1753 0023734 125.5829 347.1432 13.77301568653378
OKEAN-3                 
1 21397U 91039A   23360.57327553  .00004127  00000+0  35755-3 0  9996
2 21397  82.5199  31.2248 0017069 169.3743 190.7844 14.96778353744410
COSMOS 2151             
1 21422U 91042A   23360.45577799  .00003416  00000+0  31122-3 0  9999
2 21422  82.4992 136.2336 0012513 247.7230 112.2665 14.94825792742825
SL-14 R/B               
1 21423U 91042B   23360.20768307  .00000750  00000+0  94689-4 0  9996
2 21423  82.4937 253.8722 0017620   7.8769 352.2718 14.80526225733982
ERS-1                   
1 21574U 91050A   23360.59007922  .00000518  00000+0  18415-3 0  9997
2 21574  98.7634 343.5303 0033640  66.8291 293.6433 14.38331770700090
ARIANE 40 R/B           
1 21610U 91050F   23360.16585491  .00000634  00000+0  20783-3 0  9993
2 21610  98.3153  61.9240 0003060  10.7155 349.4100 14.41627005703024
INTERCOSMOS 25          
1 21819U 91086A   23360.61240483  .00001534  00000+0  29862-3 0  9999
2 21819  82.6053  74.6784 1505057  45.1563 326.2314 12.08037089399437
SL-8 R/B                
1 21876U 92008B   23360.49745255  .00000080  00000+0  67282-4 0  9994
2 21876  82.9268 145.7531 0034096 218.9290 204.1230 13.75784437598834
SL-8 R/B                
1 21938U 92020B   23360.59778201  .00000069  00000+0  55759-4 0  9998
2 21938  82.9302  30.9156 0029657  24.7831  87.4153 13.75387852590592
COSMOS 2219             
1 22219U 92076A   23360.15779723 -.00000177  00000+0 -68466-4 0  9995
2 22219  71.0600 259.5772 0018909 341.2126  18.8297 14.13813245604653
SL-16 R/B               
1 22220U 92076B   23360.58103309  .00000313  00000+0  18051-3 0  9999
2 22220  71.0009  81.9080 0014923 245.4312 213.7371 14.16611900607942
COSMOS 2221             
1 22236U 92080A   23360.40305199  .00003461  00000+0  34930-3 0  9994
2 22236  82.5067 326.1558 0016161  12.9558 347.2073 14.90725215660734
SL-16 R/B               
1 22285U 92093B   23360.17083094  .00000390  00000+0  22489-3 0  9997
2 22285  71.0212 252.8766 0002161  99.5782 260.5585 14.15213589599328
COSMOS 2228             
1 22286U 92094A   23360.26096821  .00003278  00000+0  32665-3 0  9996
2 22286  82.5202 283.9956 0021627 117.9950 242.3461 14.91139998655926
SL-16 R/B               
1 22566U 93016B   23360.56034862  .00000102  00000+0  77278-4 0  9995
2 22566  71.0076 103.8223 0008207 112.1145 248.0849 14.15091196588402
COSMOS 2242             
1 22626U 93024A   23360.39378087  .00003069  00000+0  30812-3 0  9999
2 22626  82.5211 312.6013 0019710 118.6317 241.6888 14.90853811660313
SL-16 R/B               
1 22803U 93059B   23360.14057391  .00000321  00000+0  18325-3 0  9992
2 22803  70.9902 267.4555 0017507 348.5417  11.5305 14.16981669565552
ARIANE 40 R/B           
1 22830U 93061H   23360.16097816  .00000456  00000+0  18654-3 0  9997
2 22830  98.5953  64.6825 0011665 137.7178 222.4907 14.31948030578920
COSMOS 2278             
1 23087U 94023A   23360.59185886 -.00000139  00000+0 -48238-4 0  9995
2 23087  71.0542  56.9944 0009020 194.6572 165.4290 14.14028572531126
SL-16 R/B               
1 23088U 94023B   23360.33103762 -.00000117  00000+0 -35995-4 0  9993
2 23088  71.0007 319.8635 0000901  44.9114 315.2081 14.14808908532313
SL-16 R/B               
1 23343U 94074B   23360.61515920  .00000854  00000+0  12600-3 0  9990
2 23343  97.8143  44.0898 0005834 324.3138 152.8177 14.77768497568422
SL-16 R/B               
1 23405U 94077B   23360.62479722 -.00000028  00000+0  10221-4 0  9994
2 23405  70.9825 243.8210 0004831 288.6470  71.4128 14.15355311502456
ERS-2                   
1 23560U 95021A   23360.54889662  .00169404  00000+0  13766-2 0  9993
2 23560  98.5223   0.6314 0003761  73.1948 286.9723 15.70168149539006
ARIANE 40+ R/B          
1 23561U 95021B   23360.62288191  .00000558  00000+0  19653-3 0  9999
2 23561  98.5519  62.9563 0007296  35.3911  86.7365 14.38650206503584
SL-16 R/B               
1 23705U 95058B   23360.59314777  .00000358  00000+0  20813-3 0  9993
2 23705  71.0228  68.1775 0014751 265.7899  94.1538 14.15274101454073
SL-16 R/B               
1 24298U 96051B   23360.58071203 -.00000096  00000+0 -25675-4 0  9991
2 24298  70.8200  75.3072 0018100 245.6437 114.2793 14.12511069408109
ORBVIEW 2 (SEASTAR)     
1 24883U 97037A   23360.31863854  .00000672  00000+0  25539-3 0  9994
2 24883  98.7492 132.8463 0001260 264.3981  95.7059 14.34297468393115
SL-16 R/B               
1 25400U 98043G   23360.42544991  .00000147  00000+0  80582-4 0  9995
2 25400  98.7278 297.0763 0009758 183.0466 177.0655 14.25681147324374
SL-16 R/B               
1 25407U 98045B   23360.56898416 -.00000128  00000+0 -40781-4 0  9991
2 25407  71.0122  72.3353 0007423 190.8162 169.2802 14.15961180313268
ISS (ZARYA)             
1 25544U 98067A   23360.67547882  .00085441  00000+0  15003-2 0  9993
2 25544  51.6408  95.0667 0003319 317.0802 185.9208 15.49781125431640
CZ-4B R/B               
1 25732U 99025C   23360.61504441  .00000165  00000+0  10122-3 0  9993
2 25732  98.7787  42.9770 0038077 132.3839 341.2803 14.17900049274201
OKEAN-O                 
1 25860U 99039A   23360.59247110  .00001238  00000+0  17890-3 0  9995
2 25860  98.0634  48.0693 0001812  81.1951 278.9464 14.77981704315513
SL-16 R/B               
1 25861U 99039B   23360.59958092  .00001033  00000+0  14456-3 0  9992
2 25861  98.1148  40.0849 0014966 344.1831  15.8911 14.79712106317868
DELTA 2 R/B             
1 25876U 99041E   23359.95638298  .00001451  00000+0  28067-3 0  9999
2 25876  51.7635 265.1139 0521499 141.0092 222.9672 14.07227906249510
HELIOS 1B               
1 25977U 99064A   23360.56308124  .00001434  00000+0  17983-3 0  9993
2 25977  98.2670 221.2026 0002101 119.1470 240.9953 14.83859417565868
TERRA                   
1 25994U 99068A   23360.59522045  .00000883  00000+0  19560-3 0  9999
2 25994  98.0733  64.0197 0002205 150.1807 319.5654 14.59506186277722
SL-16 R/B               
1 26070U 00006B   23360.37668043  .00000333  00000+0  19412-3 0  9990
2 26070  71.0025 348.7511 0017999 319.8006  40.1785 14.15590097234727
TITAN 4B R/B            
1 26474U 00047B   23360.57422677  .00005743  00000+0  45171-3 0  9997
2 26474  67.9930 126.2167 0053834 224.3263 135.3566 15.00406327271905
ENVISAT                 
1 27386U 02009A   23360.49185557  .00000274  00000+0  10328-3 0  9994
2 27386  98.2587 322.8702 0001195  83.8905  27.1794 14.38471101143536
